{
    "links": {
        "self": "http://www.neowsapp.com/rest/v1/neo/54016546?api_key=iIulBulltgU6a56xZRHN4H3l9WmuAYTsLGpBGhQ2"
    },
    "id": "54016546",
    "neo_reference_id": "54016546",
    "name": "(2020 HG)",
    "designation": "2020 HG",
    "nasa_jpl_url": "http://ssd.jpl.nasa.gov/sbdb.cgi?sstr=54016546",
    "absolute_magnitude_h": 24.149,
    "estimated_diameter": {
        "kilometers": {
            "estimated_diameter_min": 0.0393328102,
            "estimated_diameter_max": 0.0879508374
        },
        "meters": {
            "estimated_diameter_min": 39.3328102159,
            "estimated_diameter_max": 87.9508373888
        },
        "miles": {
            "estimated_diameter_min": 0.0244402676,
            "estimated_diameter_max": 0.0546500998
        },
        "feet": {
            "estimated_diameter_min": 129.0446570686,
            "estimated_diameter_max": 288.5526253386
        }
    },
    "is_potentially_hazardous_asteroid": false,
    "close_approach_data": [
        {
            "close_approach_date": "2020-04-11",
            "close_approach_date_full": "2020-Apr-11 04:53",
            "epoch_date_close_approach": 1586580780000,
            "relative_velocity": {
                "kilometers_per_second": "6.4554066159",
                "kilometers_per_hour": "23239.4638173973",
                "miles_per_hour": "14440.0990592044"
            },
            "miss_distance": {
                "astronomical": "0.128497633",
                "lunar": "49.985579237",
                "kilometers": "19222972.19684171",
                "miles": "11944601.044607198"
            },
            "orbiting_body": "Earth"
        }
    ],
    "orbital_data": {
        "orbit_id": "4",
        "orbit_determination_date": "2020-08-22 06:33:15",
        "first_observation_date": "2020-04-16",
        "last_observation_date": "2020-05-14",
        "data_arc_in_days": 28,
        "observations_used": 26,
        "orbit_uncertainty": "8",
        "minimum_orbit_intersection": ".113723",
        "jupiter_tisserand_invariant": "3.585",
        "epoch_osculation": "2458958.5",
        "eccentricity": ".4765587685340071",
        "semi_major_axis": "2.104166358084921",
        "inclination": "5.6969582491023",
        "ascending_node_longitude": "219.8493491286349",
        "orbital_period": "1114.855385034183",
        "perihelion_distance": "1.101407429685284",
        "perihelion_argument": "326.7232742373151",
        "aphelion_distance": "3.106925286484557",
        "perihelion_time": "2458939.531365270451",
        "mean_anomaly": "6.125196679592896",
        "mean_motion": ".3229118366674632",
        "equinox": "J2000",
        "orbit_class": {
            "orbit_class_type": "AMO",
            "orbit_class_description": "Near-Earth asteroid orbits similar to that of 1221 Amor",
            "orbit_class_range": "1.017 AU < q (perihelion) < 1.3 AU"
        }
    },
    "is_sentry_object": false
}